[Satellite]
VERSION=1.1
NAME=HJ-1B
NICKNAME=HJ-1B
TLE1=1 33321U 08041B   17186.27518341  .00000082  00000-0  18977-4 0  9995
TLE2=2 33321  97.9394 251.9429 0034572 345.7886  14.2362 14.76872358475442
